NUSAT-49 (KLARA DAN VO*)
1 60500U 24149AJ  26068.79810190  .00012912  00000+0  43568-3 0  9991
2 60500  97.3807 150.7380 0001132 286.7761  73.3356 15.30828857 86935
STARLINK-34000          
1 64180U 25113L   26068.46852981  .00023558  00000+0  80515-3 0  9990
2 64180  53.1589  91.9870 0001096  94.4203 265.6923 15.30193172 44995
